NLLOC "./loc1/lecturas.20150917.151207.grid0" "LOCATED" "Location completed."
SIGNATURE "Roberto Cabieces - UCMROA   NLLoc:v6.00.0 01Mar2018 13h16m20"
COMMENT ""
GRID  881 1211 102  -441.5 -605.5 -2  1 1 1 PROB_DENSITY
SEARCH OCTREE nInitial 100 nEvaluated 25028 smallestNodeSide 0.171875/0.236328/0.199219 oct_tree_integral 5.949951e+01 scatter_volume 5.949951e+01
HYPOCENTER  x 178.023 y -315.88 z 28.9785  OT 44.8825  ix -1 iy -1 iz -1
GEOGRAPHIC  OT 2015 09 17  15 11   44.8825  Lat 35.6571 Long -7.0281 Depth 28.9785
QUALITY  Pmax 1.18426e+99 MFmin 46.0258 MFmax 46.0608 RMS 0.412362 Nphs 36 Gap 82.0774 Dist 150.486 Mamp  -9.9 0 Mdur  -9.9 0
VPVSRATIO  VpVsRatio 1.75645  Npair 14  Diff 19.16
STATISTICS  ExpectX 179.58 Y -313.17 Z 30.2906  CovXX 1.52637 XY 0.858681 XZ -0.14396 YY 4.40547 YZ 1.3639 ZZ 6.57264 EllAz1  107.624 Dip1  5.88806 Len1  2.09049 Az2  200.472 Dip2  25.7215 Len2  3.76925 Len3  5.056028e+00
STAT_GEOG  ExpectLat 35.6815 Long -7.01025 Depth 30.2906
TRANSFORM  SIMPLE LatOrig 38.500000  LongOrig -9.000000  RotCW 0.000000
QML_OriginQuality  assocPhCt 56  usedPhCt 36  assocStaCt -1  usedStaCt 22  depthPhCt -1  stdErr 0.412362  azGap 82.0774  secAzGap 106.911  gtLevel -  minDist 150.486 maxDist 361.778 medDist 281.305
QML_OriginUncertainty  horUnc -1  minHorUnc 1.72231  maxHorUnc 3.26755  azMaxHorUnc 15.4079
FOCALMECH  Hyp  35.6571 -7.0281 28.9785 Mech  0 0 0 mf  0 nObs 0
PHASE ID Ins Cmp On Pha  FM Date     HrMn   Sec     Err  ErrMag    Coda      Amp       Per  >   TTpred    Res       Weight    StaLoc(X  Y         Z)        SDist    SAzim  RAz  RDip RQual    Tcorr 
ECEU   ?    ?    ? P      ? 20150917 1512      7.62 GAU      0.02        -1        -1        -1 >   22.7552   -0.0177    1.6789  326.1138 -289.1333   -0.2780  150.4863  79.76   0.0   0.0  0     0.0000
CEU1   ?    ?    ? P      ? 20150917 1512      8.33 GAU      0.02        -1        -1        -1 >   22.8191    0.6285    0.5272  326.4431 -289.0333   -0.3200  150.8282  79.75   0.0   0.0  0     0.0000
ESPR   ?    ?    ? P      ? 20150917 1512      9.36 GAU      0.02        -1        -1        -1 >   24.7714   -0.2938    1.1525  279.4536 -181.2667   -0.1350  168.5491  37.00   0.0   0.0  0     0.0000
ESPR   ?    ?    ? S      ? 20150917 1512      27.2 GAU       0.1        -1        -1        -1 >   43.3585   -1.0410    0.4846  279.4536 -181.2667   -0.1350  168.5491  37.00   0.0   0.0  0     0.0000
PVAQ   ?    ?    ? P      ? 20150917 1512     13.16 GAU      0.02        -1        -1        -1 >   28.2859   -0.0084    1.6812  113.2161 -121.8111   -0.2000  204.6037 341.53   0.0   0.0  0     0.0000
EGRO   ?    ?    ? P      ? 20150917 1512     14.36 GAU      0.02        -1        -1        -1 >   29.4245    0.0530    1.6641  133.6540 -107.3111   -0.1300  213.2360 347.99   0.0   0.0  0     0.0000
EGRO   ?    ?    ? S      ? 20150917 1512      36.3 GAU       0.1        -1        -1        -1 >   51.5254   -0.1079    1.5474  133.6540 -107.3111   -0.1300  213.2360 347.99   0.0   0.0  0     0.0000
EMIJ   ?    ?    ? P      ? 20150917 1512     15.68 GAU      0.02        -1        -1        -1 >   30.8525   -0.0550    1.6570  377.2568 -215.0556   -0.4700  223.2924  63.16   0.0   0.0  0     0.0000
EMIJ   ?    ?    ? S      ? 20150917 1512     38.39 GAU       0.1        -1        -1        -1 >   54.5972   -1.0897    0.4562  377.2568 -215.0556   -0.4700  223.2924  63.16   0.0   0.0  0     0.0000
PFVI   ?    ?    ? P      ? 20150917 1512     16.18 GAU      0.02        -1        -1        -1 >   31.3896   -0.0921    1.6155   15.3424 -151.9111   -0.1890  230.9781 315.23   0.0   0.0  0     0.0000
EMIN   ?    ?    ? P      ? 20150917 1512     17.15 GAU      0.02        -1        -1        -1 >   32.1366    0.1309    1.5675  204.4415  -81.3889   -0.2400  235.9745   6.43   0.0   0.0  0     0.0000
EMIN   ?    ?    ? S      ? 20150917 1512     40.41 GAU       0.1        -1        -1        -1 >   56.4444   -0.9169    0.5208  204.4415  -81.3889   -0.2400  235.9745   6.43   0.0   0.0  0     0.0000
PCVE   ?    ?    ? P      ? 20150917 1512     17.35 GAU      0.02        -1        -1        -1 >   32.6164   -0.1489    1.5182   84.5616  -96.3556   -0.2250  238.5918 336.94   0.0   0.0  0     0.0000
EMAL   ?    ?    ? P      ? 20150917 1512     20.55 GAU      0.02        -1        -1        -1 >   35.6067    0.0608    1.6581  406.8665 -193.1111   -0.0800  259.6946  61.79   0.0   0.0  0     0.0000
EMAL   ?    ?    ? S      ? 20150917 1512     48.43 GAU       0.1        -1        -1        -1 >   62.7593    0.7882    0.4173  406.8665 -193.1111   -0.0800  259.6946  61.79   0.0   0.0  0     0.0000
AVE1   ?    ?    ? P      ? 20150917 1512     20.48 GAU      0.02        -1        -1        -1 >   35.5077    0.0898    1.6281  147.3560 -577.9889   -0.2300  263.8970 186.67   0.0   0.0  0     0.0000
AVE1   ?    ?    ? S      ? 20150917 1512     46.91 GAU       0.1        -1        -1        -1 >   62.2350   -0.2075    1.3660  147.3560 -577.9889   -0.2300  263.8970 186.67   0.0   0.0  0     0.0000
IFR1   ?    ?    ? P      ? 20150917 1512     22.81 GAU      0.02        -1        -1        -1 >   39.9983   -2.0708    0.0013  358.7615 -553.7111   -1.6300  298.7138 142.77   0.0   0.0  0     0.0000
ECAB   ?    ?    ? P      ? 20150917 1512      25.4 GAU      0.02        -1        -1        -1 >   40.1642    0.3533    1.0343  313.2535  -47.1889   -0.5200  300.8023  26.72   0.0   0.0  0     0.0000
ECAB   ?    ?    ? S      ? 20150917 1512     54.14 GAU       0.1        -1        -1        -1 >   70.1982   -0.9407    0.5175  313.2535  -47.1889   -0.5200  300.8023  26.72   0.0   0.0  0     0.0000
EGOR   ?    ?    ? P      ? 20150917 1512     27.07 GAU      0.02        -1        -1        -1 >   42.0139    0.1736    1.4852  433.3316 -154.4333   -1.3780  302.0716  57.69   0.0   0.0  0     0.0000
EGOR   ?    ?    ? S      ? 20150917 1512     57.37 GAU       0.1        -1        -1        -1 >   73.5343   -1.0468    0.4816  433.3316 -154.4333   -1.3780  302.0716  57.69   0.0   0.0  0     0.0000
OB01   ?    ?    ? P      ? 20150917 1512     24.56 GAU      0.02        -1        -1        -1 >   38.9225    0.7550    0.4217 -123.5819 -288.0000    4.8500  302.8911 275.28   0.0   0.0  0     0.0000
OB01   ?    ?    ? S      ? 20150917 1512     56.08 GAU       0.1        -1        -1        -1 >   67.6951    3.5024    0.0474 -123.5819 -288.0000    4.8500  302.8911 275.28   0.0   0.0  0     0.0000
OB02   ?    ?    ? P      ? 20150917 1512     25.56 GAU      0.02        -1        -1        -1 >   40.7426   -0.0651    1.6476 -140.3416 -322.8222    4.7170  318.4407 268.75   0.0   0.0  0     0.0000
OB02   ?    ?    ? S      ? 20150917 1512     57.23 GAU       0.1        -1        -1        -1 >   71.1241    1.2234    0.1479 -140.3416 -322.8222    4.7170  318.4407 268.75   0.0   0.0  0     0.0000
OB06   ?    ?    ? P      ? 20150917 1512     26.83 GAU      0.02        -1        -1        -1 >   41.6302    0.3173    1.1278 -139.4355 -252.8667    4.8430  323.6523 281.23   0.0   0.0  0     0.0000
OB06   ?    ?    ? S      ? 20150917 1513      0.45 GAU       0.1        -1        -1        -1 >   72.4381    3.1294    0.0732 -139.4355 -252.8667    4.8430  323.6523 281.23   0.0   0.0  0     0.0000
EVO1   ?    ?    ? P      ? 20150917 1512     29.08 GAU      0.02        -1        -1        -1 >   44.1258    0.0717    1.6482   85.4694    3.2667   -0.2320  332.2962 343.83   0.0   0.0  0     0.0000
EBAD   ?    ?    ? P      ? 20150917 1512      30.5 GAU      0.02        -1        -1        -1 >   45.5550    0.0625    1.6566  172.1417   28.4000   -0.2210  344.3301 359.02   0.0   0.0  0     0.0000
EBAD   ?    ?    ? S      ? 20150917 1513      3.71 GAU       0.1        -1        -1        -1 >   79.7756   -0.9481    0.5161  172.1417   28.4000   -0.2210  344.3301 359.02   0.0   0.0  0     0.0000
EADA   ?    ?    ? P      ? 20150917 1512     31.88 GAU      0.02        -1        -1        -1 >   46.0219    0.9756    0.2922  386.3697  -36.9667   -0.5650  348.1390  36.76   0.0   0.0  0     0.0000
EADA   ?    ?    ? S      ? 20150917 1513      4.85 GAU       0.1        -1        -1        -1 >   80.5642   -0.5967    0.5963  386.3697  -36.9667   -0.5650  348.1390  36.76   0.0   0.0  0     0.0000
OB03   ?    ?    ? P      ? 20150917 1512     30.16 GAU      0.02        -1        -1        -1 >   45.4564   -0.1789    1.4532 -179.7137 -322.6889    4.8420  357.8020 268.91   0.0   0.0  0     0.0000
OB05   ?    ?    ? P      ? 20150917 1512     31.35 GAU      0.02        -1        -1        -1 >   46.4522    0.0153    1.6812 -178.2603 -253.0667    4.6840  361.7784 280.00   0.0   0.0  0     0.0000
OB05   ?    ?    ? S      ? 20150917 1513      8.35 GAU       0.1        -1        -1        -1 >   80.8219    2.6456    0.0304 -178.2603 -253.0667    4.6840  361.7784 280.00   0.0   0.0  0     0.0000
ELGU   ?    ?    ? P      ? 20150917 1512     28.12 GAU      0.02        -1        -1        -1 >    0.0000    0.0000    0.0000 -100000000000000000000.0000 -100000000000000000000.0000 -100000000000000000000.0000    0.0000   0.00   0.0   0.0  0     0.0000
EALB   ?    ?    ? P      ? 20150917 1512     31.68 GAU      0.02        -1        -1        -1 >    0.0000    0.0000    0.0000 -100000000000000000000.0000 -100000000000000000000.0000 -100000000000000000000.0000    0.0000   0.00   0.0   0.0  0     0.0000
PETR   ?    ?    ? P      ? 20150917 1512     32.33 GAU      0.02        -1        -1        -1 >    0.0000    0.0000    0.0000 -100000000000000000000.0000 -100000000000000000000.0000 -100000000000000000000.0000    0.0000   0.00   0.0   0.0  0     0.0000
EQTA   ?    ?    ? P      ? 20150917 1512     33.92 GAU      0.02        -1        -1        -1 >    0.0000    0.0000    0.0000 -100000000000000000000.0000 -100000000000000000000.0000 -100000000000000000000.0000    0.0000   0.00   0.0   0.0  0     0.0000
EBER   ?    ?    ? P      ? 20150917 1512      36.2 GAU      0.02        -1        -1        -1 >    0.0000    0.0000    0.0000 -100000000000000000000.0000 -100000000000000000000.0000 -100000000000000000000.0000    0.0000   0.00   0.0   0.0  0     0.0000
PMFR   ?    ?    ? P      ? 20150917 1512      39.8 GAU      0.02        -1        -1        -1 >    0.0000    0.0000    0.0000 -100000000000000000000.0000 -100000000000000000000.0000 -100000000000000000000.0000    0.0000   0.00   0.0   0.0  0     0.0000
ENIJ   ?    ?    ? P      ? 20150917 1512     43.95 GAU      0.02        -1        -1        -1 >    0.0000    0.0000    0.0000 -100000000000000000000.0000 -100000000000000000000.0000 -100000000000000000000.0000    0.0000   0.00   0.0   0.0  0     0.0000
EMUR   ?    ?    ? P      ? 20150917 1512     58.24 GAU      0.02        -1        -1        -1 >    0.0000    0.0000    0.0000 -100000000000000000000.0000 -100000000000000000000.0000 -100000000000000000000.0000    0.0000   0.00   0.0   0.0  0     0.0000
CART   ?    ?    ? P      ? 20150917 1512     59.11 GAU      0.02        -1        -1        -1 >    0.0000    0.0000    0.0000 -100000000000000000000.0000 -100000000000000000000.0000 -100000000000000000000.0000    0.0000   0.00   0.0   0.0  0     0.0000
ETOB   ?    ?    ? P      ? 20150917 1513      0.21 GAU      0.02        -1        -1        -1 >    0.0000    0.0000    0.0000 -100000000000000000000.0000 -100000000000000000000.0000 -100000000000000000000.0000    0.0000   0.00   0.0   0.0  0     0.0000
UCM1   ?    ?    ? P      ? 20150917 1513      4.68 GAU      0.02        -1        -1        -1 >    0.0000    0.0000    0.0000 -100000000000000000000.0000 -100000000000000000000.0000 -100000000000000000000.0000    0.0000   0.00   0.0   0.0  0     0.0000
PETR   ?    ?    ? S      ? 20150917 1512     68.75 GAU       0.1        -1        -1        -1 >    0.0000    0.0000    0.0000 -100000000000000000000.0000 -100000000000000000000.0000 -100000000000000000000.0000    0.0000   0.00   0.0   0.0  0     0.0000
EQTA   ?    ?    ? S      ? 20150917 1512     69.77 GAU       0.1        -1        -1        -1 >    0.0000    0.0000    0.0000 -100000000000000000000.0000 -100000000000000000000.0000 -100000000000000000000.0000    0.0000   0.00   0.0   0.0  0     0.0000
ECHE   ?    ?    ? P      ? 20150917 1513     12.66 GAU      0.02        -1        -1        -1 >    0.0000    0.0000    0.0000 -100000000000000000000.0000 -100000000000000000000.0000 -100000000000000000000.0000    0.0000   0.00   0.0   0.0  0     0.0000
PMFR   ?    ?    ? S      ? 20150917 1512     81.07 GAU       0.1        -1        -1        -1 >    0.0000    0.0000    0.0000 -100000000000000000000.0000 -100000000000000000000.0000 -100000000000000000000.0000    0.0000   0.00   0.0   0.0  0     0.0000
EIBI   ?    ?    ? P      ? 20150917 1513     29.61 GAU      0.02        -1        -1        -1 >    0.0000    0.0000    0.0000 -100000000000000000000.0000 -100000000000000000000.0000 -100000000000000000000.0000    0.0000   0.00   0.0   0.0  0     0.0000
ETOS   ?    ?    ? P      ? 20150917 1513      47.7 GAU      0.02        -1        -1        -1 >    0.0000    0.0000    0.0000 -100000000000000000000.0000 -100000000000000000000.0000 -100000000000000000000.0000    0.0000   0.00   0.0   0.0  0     0.0000
ETOB   ?    ?    ? S      ? 20150917 1513     56.18 GAU       0.1        -1        -1        -1 >    0.0000    0.0000    0.0000 -100000000000000000000.0000 -100000000000000000000.0000 -100000000000000000000.0000    0.0000   0.00   0.0   0.0  0     0.0000
UCM1   ?    ?    ? S      ? 20150917 1513     61.59 GAU       0.1        -1        -1        -1 >    0.0000    0.0000    0.0000 -100000000000000000000.0000 -100000000000000000000.0000 -100000000000000000000.0000    0.0000   0.00   0.0   0.0  0     0.0000
ECHE   ?    ?    ? S      ? 20150917 1513     78.83 GAU       0.1        -1        -1        -1 >    0.0000    0.0000    0.0000 -100000000000000000000.0000 -100000000000000000000.0000 -100000000000000000000.0000    0.0000   0.00   0.0   0.0  0     0.0000
END_PHASE
END_NLLOC

