NLLOC "/Users/robertocabieces/Documents/ISPshare/isp/earthquakeAnalisysis/location_output/loc/location.20150917.151207.grid0" "LOCATED" "Location completed."
SIGNATURE "   obs:/Users/robertocabieces/Documents/ISPshare/isp/earthquakeAnalisysis/location_output/obs/output.txt   NLLoc:v7.00.00(27Oct2017)  run:10Feb2020 12h58m36"
COMMENT ""
GRID  1001 1001 115  -100 -100 -1  1 1 1 PROB_DENSITY
SEARCH OCTREE nInitial 100 nEvaluated 25020 smallestNodeSide 0.195312/0.195312/0.224609 oct_tree_integral 1.949331e+02 scatter_volume 1.949331e+02
HYPOCENTER  x 262.793 y 294.434 z 44.0342  OT 44.4241  ix -1 iy -1 iz -1 MAXIMUM_LIKELIHOOD
GEOGRAPHIC  OT 2015 09 17  15 11 44.424088  Lat 35.649902 Long -7.089397 Depth 44.034180
QUALITY  Pmax 1.83024e+97 MFmin 47.1276 MFmax 47.1622 RMS 0.465858 Nphs 36 Gap 105.12 Dist 155.782 Mamp -9.90 0 Mdur -9.90 0
VPVSRATIO  VpVsRatio 2  Npair 11  Diff 11
STATISTICS  ExpectX 261.85 Y 294.758 Z 46.641  CovXX 2.00612 XY -0.303573 XZ -1.15171 YY 1.63214 YZ 0.0592562 ZZ 147.052 EllAz1  29.4775 Dip1  0.20273 Len1  2.27081 Az2  299.479 Dip2  -0.408015 Len2  2.76661 Len3  2.278436e+01
STAT_GEOG  ExpectLat 35.652823 Long -7.099740 Depth 46.641042
TRANSFORM  SIMPLE LatOrig 33.000000  LongOrig -10.000000  RotCW 0.000000
QML_OriginQuality  assocPhCt 45  usedPhCt 36  assocStaCt -1  usedStaCt 25  depthPhCt -1  stdErr 0.465858  azGap 105.12  secAzGap 189.059  gtLevel -  minDist 155.782 maxDist 561.406 medDist 263.815
QML_OriginUncertainty  horUnc -1  minHorUnc 1.83411  maxHorUnc 2.23697  azMaxHorUnc 119.184
QML_ConfidenceEllipsoid  semiMajorAxisLength 22.7844  semiMinorAxisLength 2.27081  semiIntermediateAxisLength 2.76661  majorAxisPlunge -89.5444  majorAxisAzimuth 93.0567  majorAxisRotation 206.424
FOCALMECH  Hyp  35.649902 -7.089397 44.034180 Mech  0 0 0 mf  0 nObs 0
PHASE ID Ins Cmp On Pha  FM Date     HrMn   Sec     Err  ErrMag    Coda      Amp       Per  >   TTpred    Res       Weight    StaLoc(X  Y         Z)        SDist    SAzim  RAz  RDip RQual    Tcorr 
ECEU   ?    ?    ? Pg     U 20150917 1512    7.0000 GAU  1.00e-02 -1.00e+00  3.47e+02 -1.00e+00 >   22.4552    0.1207    1.4964  416.1210  321.9778   -0.2780  155.7824  79.82  79.8  98.3  9     0.0000
CEU    ?    ?    ? P      U 20150917 1512    8.0000 GAU  1.00e-02 -1.00e+00  2.61e+02 -1.00e+00 >   22.5019    1.0740    0.0654  416.4492  322.0778   -0.3200  156.1232  79.80  79.8  98.2  9     0.0000
ARNO   ?    ?    ? P      D 20150917 1512    8.0000 GAU  2.00e-02 -1.00e+00 -1.00e+00 -1.00e+00 >   23.3567    0.2193    1.3136  289.5985  455.4222   -0.1170  163.2050   9.45   9.5  97.8  9     0.0000
ESPR   ?    ?    ? P      U 20150917 1512    9.0000 GAU -1.00e+02 -1.00e+00  1.02e+02 -1.00e+00 >   24.4098    0.1661    1.4213  368.3440  429.8444   -0.1350  171.6890  37.94  37.9  97.3  9     0.0000
PBDV   ?    ?    ? P      D 20150917 1512   11.0000 GAU  0.00e+00 -1.00e+00 -1.00e+00 -1.00e+00 >   27.2349   -0.6590    0.9246  182.9941  471.4444   -0.4710  194.1667 335.73 335.7  96.3  9     0.0000
PVAQ   ?    ?    ? P      D 20150917 1512   13.0000 GAU  0.00e+00 -1.00e+00 -1.00e+00 -1.00e+00 >   28.4624    0.1135    1.5067  201.4776  489.2968   -0.2000  204.2822 342.53 342.5  95.8  9     0.0000
EGRO   ?    ?    ? P      D 20150917 1512   14.0000 GAU  0.00e+00 -1.00e+00 -1.00e+00 -1.00e+00 >   29.5819   -0.0060    1.6028  221.7640  503.8000   -0.1300  213.3487 348.91 348.9  95.5  9     0.0000
EMIJ   ?    ?    ? P      U 20150917 1512   15.0000 GAU  0.00e+00 -1.00e+00  1.36e+01 -1.00e+00 >   31.3965   -0.8206    0.8219  466.4998  396.0556   -0.4700  227.6477  63.49  63.5  95.0  9     0.0000
EMIJ   ?    ?    ? S      U 20150917 1512   38.0000 GAU  0.00e+00 -1.00e+00  2.77e+02 -1.00e+00 >   54.9505   -1.3746    0.3788  466.4998  396.0556   -0.4700  227.6477  63.49  63.5  99.4  9     0.0000
PFVI   ?    ?    ? P      D 20150917 1512   16.0000 GAU  0.00e+00 -1.00e+00 -1.00e+00 -1.00e+00 >   31.5204    0.0555    1.5712  103.9219  459.2036   -0.1890  228.8868 316.04 316.0  94.9  9     0.0000
EMIN   ?    ?    ? P      D 20150917 1512   17.0000 GAU  0.00e+00 -1.00e+00  3.33e+02 -1.00e+00 >   32.5508    0.0251    1.5916  292.2751  529.7222   -0.2400  237.1285   7.14   7.1  94.7  9     0.0000
EMIN   ?    ?    ? S      D 20150917 1512   40.0000 GAU  0.00e+00 -1.00e+00 -1.00e+00 -1.00e+00 >   56.9727   -1.3968    0.3627  292.2751  529.7222   -0.2400  237.1285   7.14   7.1  99.3  9     0.0000
PCVE   ?    ?    ? P      D 20150917 1512   17.0000 GAU  0.00e+00 -1.00e+00 -1.00e+00 -1.00e+00 >   32.6686   -0.0927    1.5847  172.5550  514.7591   -0.2250  238.0887 337.73 337.7  94.7  9     0.0000
PCVE   ?    ?    ? S      U 20150917 1512   42.0000 GAU  0.00e+00 -1.00e+00 -1.00e+00 -1.00e+00 >   57.1791    0.3968    0.8742  172.5550  514.7591   -0.2250  238.0887 337.73 337.7  99.3  9     0.0000
AVE    ?    ?    ? P      D 20150917 1512   20.0000 GAU  0.00e+00 -1.00e+00  8.43e+01 -1.00e+00 >   35.6780   -0.1021    1.5788  240.2256   33.1222   -0.2300  262.2840 184.94 184.9  93.9  9     0.0000
EMAL   ?    ?    ? P      U 20150917 1512   20.0000 GAU  0.00e+00 -1.00e+00 -1.00e+00 -1.00e+00 >   35.8523   -0.2764    1.3735  495.8807  418.0000   -0.0800  263.8154  62.07  62.1  93.9  9     0.0000
OBS01  ?    ?    ? P      U 20150917 1512   24.0000 GAU  0.00e+00 -1.00e+00  3.09e+03 -1.00e+00 >   39.5594    0.0166    1.5957  -33.5914  323.1198    4.8499  297.7694 275.53 275.5  92.8  9     0.0000
OBS01  ?    ?    ? S      U 20150917 1512   58.0000 GAU  0.00e+00 -1.00e+00 -1.00e+00 -1.00e+00 >   69.2710    4.3049    0.0000  -33.5914  323.1198    4.8499  297.7694 275.53 275.5  98.4  9     0.0000
ECAB   ?    ?    ? P      ? 20150917 1512   25.0000 GAU  0.00e+00 -1.00e+00 -1.00e+00 -1.00e+00 >   40.7393   -0.1634    1.5240  400.7203  563.9222   -0.5200  302.7343  27.10  27.1  92.8  9     0.0000
ECAB   ?    ?    ? S      ? 20150917 1512   52.0000 GAU  0.00e+00 -1.00e+00  4.71e+02 -1.00e+00 >   71.3327   -3.7568    0.0000  400.7203  563.9222   -0.5200  302.7343  27.10  27.1  98.4  9     0.0000
PNCL   ?    ?    ? P      D 20150917 1512   25.0000 GAU  0.00e+00 -1.00e+00 -1.00e+00 -1.00e+00 >   40.9397   -0.3638    1.2424  128.5993  567.9813   -0.1200  304.6905 333.87 333.9  92.7  9     0.0000
PNCL   ?    ?    ? S      ? 20150917 1512   55.0000 GAU  0.00e+00 -1.00e+00  7.15e+02 -1.00e+00 >   71.6849   -1.1090    0.5897  128.5993  567.9813   -0.1200  304.6905 333.87 333.9  98.4  9     0.0000
OBS02  ?    ?    ? P      U 20150917 1512   25.0000 GAU  0.00e+00 -1.00e+00  1.88e+04 -1.00e+00 >   41.4464   -0.8705    0.7878  -49.9955  288.2889    4.7174  312.8488 268.87 268.9  92.3  9     0.0000
OBS02  ?    ?    ? S      U 20150917 1512   57.0000 GAU  0.00e+00 -1.00e+00  5.99e+03 -1.00e+00 >   72.5832   -0.0073    1.6031  -49.9955  288.2889    4.7174  312.8488 268.87 268.9  98.3  9     0.0000
OBS06  ?    ?    ? P      ? 20150917 1512   27.0000 GAU  0.00e+00 -1.00e+00  1.74e+03 -1.00e+00 >   42.2058    0.3701    0.9423  -49.8054  358.2500    4.8430  319.0459 281.54 281.5  92.1  9     0.0000
OBS06  ?    ?    ? S      ? 20150917 1513    0.0000 GAU  0.00e+00 -1.00e+00 -1.00e+00 -1.00e+00 >   73.9165    1.6594    0.0130  -49.8054  358.2500    4.8430  319.0459 281.54 281.5  98.2  9     0.0000
EVO    ?    ?    ? P      D 20150917 1512   29.0000 GAU  0.00e+00 -1.00e+00 -1.00e+00 -1.00e+00 >   44.4065    0.1694    1.4152  172.3869  614.3778   -0.2320  332.4719 344.22 344.2  91.9  9     0.0000
EVO    ?    ?    ? S      D 20150917 1513    2.0000 GAU  0.00e+00 -1.00e+00  6.41e+02 -1.00e+00 >   77.7706   -0.1946    1.4873  172.3869  614.3778   -0.2320  332.4719 344.22 344.2  98.1  9     0.0000
ELGU   ?    ?    ? P      ? 20150917 1512   28.0000 GAU  0.00e+00 -1.00e+00 -1.00e+00 -1.00e+00 >   44.4798   -0.9039    0.7633  566.5400  429.7556   -0.8470  332.5271  65.99  66.0  91.9  9     0.0000
EBAD   ?    ?    ? P      D 20150917 1512   30.0000 GAU  0.00e+00 -1.00e+00 -1.00e+00 -1.00e+00 >   45.9758   -0.3999    1.1904  258.7887  639.5111   -0.2210  345.1007 359.34 359.3  91.5  9     0.0000
EBAD   ?    ?    ? S      ? 20150917 1513    4.0000 GAU  0.00e+00 -1.00e+00  1.05e+03 -1.00e+00 >   80.5262   -0.9503    0.7269  258.7887  639.5111   -0.2210  345.1007 359.34 359.3  98.0  9     0.0000
OBS03  ?    ?    ? P      U 20150917 1512   30.0000 GAU  0.00e+00 -1.00e+00 -1.00e+00 -1.00e+00 >   46.3299   -0.7540    0.8639  -89.3644  288.4278    4.8420  352.2086 269.02 269.0  91.2  9     0.0000
OBS03  ?    ?    ? S      U 20150917 1513    4.0000 GAU  0.00e+00 -1.00e+00  1.51e+04 -1.00e+00 >   81.1583   -1.5824    0.2223  -89.3644  288.4278    4.8420  352.2086 269.02 269.0  98.0  9     0.0000
OBS05  ?    ?    ? P      U 20150917 1512   31.0000 GAU  0.00e+00 -1.00e+00  1.87e+02 -1.00e+00 >   46.9564   -0.3805    1.2180  -88.6282  358.0444    4.6836  357.1319 280.26 280.3  91.1  9     0.0000
PMAFR  ?    ?    ? P      D 20150917 1512   39.0000 GAU  0.00e+00 -1.00e+00  4.50e+02 -1.00e+00 >   55.1256   -0.5497    1.0126   61.9802  661.7033   -0.3290  418.5843 331.33 331.3  89.5  9     0.0000
EMUR   ?    ?    ? P      ? 20150917 1512   58.0000 GAU  0.00e+00 -1.00e+00 -1.00e+00 -1.00e+00 >   72.9129    0.6630    0.3339  768.6007  538.0222   -0.5740  561.4062  64.29  64.3  87.8  9     0.0000
EBER   ?    ?    ? P      D 20150917 1512   36.0000 GAU  0.00e+00 -1.00e+00 -1.00e+00 -1.00e+00 >    0.0000    0.0000    0.0000 -100000000000000000000.0000 -100000000000000000000.0000 -100000000000000000000.0000    0.0000   0.00 359.0  -1.0  0     0.0000
ETOB   ?    ?    ? Pg     U 20150917 1513    0.0000 GAU  0.00e+00 -1.00e+00 -1.00e+00 -1.00e+00 >    0.0000    0.0000    0.0000 -100000000000000000000.0000 -100000000000000000000.0000 -100000000000000000000.0000    0.0000   0.00 359.0  -1.0  0     0.0000
PESTR  ?    ?    ? Pg     ? 20150917 1512   30.0000 GAU  0.00e+00 -1.00e+00 -1.00e+00 -1.00e+00 >    0.0000    0.0000    0.0000 -100000000000000000000.0000 -100000000000000000000.0000 -100000000000000000000.0000    0.0000   0.00 359.0  -1.0  0     0.0000
IFR    ?    ?    ? S      D 20150917 1512   49.0000 GAU  0.00e+00 -1.00e+00 -1.00e+00 -1.00e+00 >    0.0000    0.0000    0.0000 -100000000000000000000.0000 -100000000000000000000.0000 -100000000000000000000.0000    0.0000   0.00 359.0  -1.0  0     0.0000
EGOR   ?    ?    ? S      U 20150917 1512   55.0000 GAU  0.00e+00 -1.00e+00 -1.00e+00 -1.00e+00 >    0.0000    0.0000    0.0000 -100000000000000000000.0000 -100000000000000000000.0000 -100000000000000000000.0000    0.0000   0.00 359.0  -1.0  0     0.0000
EGOR   ?    ?    ? P      U 20150917 1512   27.0000 GAU  0.00e+00 -1.00e+00 -1.00e+00 -1.00e+00 >    0.0000    0.0000    0.0000 -100000000000000000000.0000 -100000000000000000000.0000 -100000000000000000000.0000    0.0000   0.00 359.0  -1.0  0     0.0000
EADA   ?    ?    ? Pg     ? 20150917 1512   31.0000 GAU  0.00e+00 -1.00e+00 -1.00e+00 -1.00e+00 >    0.0000    0.0000    0.0000 -100000000000000000000.0000 -100000000000000000000.0000 -100000000000000000000.0000    0.0000   0.00 359.0  -1.0  0     0.0000
EQTA   ?    ?    ? Pg     U 20150917 1512   34.0000 GAU  0.00e+00 -1.00e+00  1.49e+02 -1.00e+00 >    0.0000    0.0000    0.0000 -100000000000000000000.0000 -100000000000000000000.0000 -100000000000000000000.0000    0.0000   0.00 359.0  -1.0  0     0.0000
IFR    ?    ?    ? P      D 20150917 1512   22.0000 GAU  0.00e+00 -1.00e+00  2.07e+02 -1.00e+00 >    0.0000    0.0000    0.0000 -100000000000000000000.0000 -100000000000000000000.0000 -100000000000000000000.0000    0.0000   0.00 359.0  -1.0  0     0.0000
END_PHASE
END_NLLOC

