NLLOC "/Users/robertocabieces/Documents/ISPshare/isp/earthquakeAnalisysis/location_output/loc/location.20150917.151207.grid0" "LOCATED" "Location completed."
SIGNATURE "   obs:/Users/robertocabieces/Documents/ISPshare/isp/earthquakeAnalisysis/location_output/obs/output.txt   NLLoc:v7.00.00(27Oct2017)  run:08Jan2020 10h17m03"
COMMENT ""
GRID  1001 1001 115  -100 -100 -1  1 1 1 PROB_DENSITY
SEARCH OCTREE nInitial 100 nEvaluated 25020 smallestNodeSide 0.195312/0.195312/0.224609 oct_tree_integral 1.320806e+02 scatter_volume 1.320806e+02
HYPOCENTER  x 259.473 y 298.34 z 43.8096  OT 45.0529  ix -1 iy -1 iz -1 MAXIMUM_LIKELIHOOD
GEOGRAPHIC  OT 2015 09 17  15 11 45.052870  Lat 35.685059 Long -7.124906 Depth 43.809570
QUALITY  Pmax 1.53452e+90 MFmin 45.7984 MFmax 45.8316 RMS 0.552195 Nphs 35 Gap 102.732 Dist 158.422 Mamp -9.90 0 Mdur -9.90 0
VPVSRATIO  VpVsRatio 2  Npair 9  Diff 17
STATISTICS  ExpectX 260.592 Y 298.265 Z 38.7009  CovXX 3.61224 XY -0.44232 XZ -3.73893 YY 1.31663 YZ 1.74824 ZZ 52.4201 EllAz1  8.40848 Dip1  -1.32303 Len1  2.06709 Az2  278.302 Dip2  -4.60683 Len2  3.45025 Len3  1.364789e+01
STAT_GEOG  ExpectLat 35.684381 Long -7.112530 Depth 38.700851
TRANSFORM  SIMPLE LatOrig 33.000000  LongOrig -10.000000  RotCW 0.000000
QML_OriginQuality  assocPhCt 43  usedPhCt 35  assocStaCt -1  usedStaCt 26  depthPhCt -1  stdErr 0.552195  azGap 102.732  secAzGap 186.721  gtLevel -  minDist 158.422 maxDist 601.446 medDist 300.265
QML_OriginUncertainty  horUnc -1  minHorUnc 1.68494  maxHorUnc 2.91503  azMaxHorUnc 100.537
QML_ConfidenceEllipsoid  semiMajorAxisLength 13.6479  semiMinorAxisLength 2.06709  semiIntermediateAxisLength 3.45025  majorAxisPlunge -85.2062  majorAxisAzimuth 114.394  majorAxisRotation 163.746
FOCALMECH  Hyp  35.685059 -7.124906 43.809570 Mech  0 0 0 mf  0 nObs 0
PHASE ID Ins Cmp On Pha  FM Date     HrMn   Sec     Err  ErrMag    Coda      Amp       Per  >   TTpred    Res       Weight    StaLoc(X  Y         Z)        SDist    SAzim  RAz  RDip RQual    Tcorr 
ECEU   ?    ?    ? P      ? 20150917 1512    7.0000 GAU  0.00e+00 -1.00e+00  5.60e+02 -1.00e+00 >   22.7779   -0.8308    0.8534  416.1210  321.9778   -0.2780  158.4217  81.42 359.0  -1.0  0     0.0000
CEU    ?    ?    ? P      ? 20150917 1512    8.0000 GAU  0.00e+00 -1.00e+00  1.52e+02 -1.00e+00 >   22.8245    0.1227    1.5728  416.4492  322.0778   -0.3200  158.7613  81.40 359.0  -1.0  0     0.0000
ARNO   ?    ?    ? P      ? 20150917 1512    8.0000 GAU  0.00e+00 -1.00e+00  3.23e+03 -1.00e+00 >   22.9491   -0.0020    1.7196  289.5985  455.4222   -0.1170  159.9451  10.86 359.0  -1.0  0     0.0000
PVAQ   ?    ?    ? P      ? 20150917 1512   13.0000 GAU  0.00e+00 -1.00e+00  2.46e+02 -1.00e+00 >   27.8738    0.0733    1.6525  201.4776  489.2968   -0.2000  199.5695 343.11 359.0  -1.0  0     0.0000
PVAQ   ?    ?    ? S      ? 20150917 1512   34.0000 GAU  0.00e+00 -1.00e+00 -1.00e+00 -1.00e+00 >   48.7823    0.1648    1.4844  201.4776  489.2968   -0.2000  199.5695 343.11 359.0  -1.0  0     0.0000
EGRO   ?    ?    ? P      ? 20150917 1512   15.0000 GAU  0.00e+00 -1.00e+00 -1.00e+00 -1.00e+00 >   29.0250    0.9222    0.0498  221.7640  503.8000   -0.1300  208.8919 349.60 359.0  -1.0  0     0.0000
EGRO   ?    ?    ? S      ? 20150917 1512   35.0000 GAU  0.00e+00 -1.00e+00 -1.00e+00 -1.00e+00 >   50.7975   -0.8504    0.8417  221.7640  503.8000   -0.1300  208.8919 349.60 359.0  -1.0  0     0.0000
PFVI   ?    ?    ? P      ? 20150917 1512   16.0000 GAU  0.00e+00 -1.00e+00  5.24e+01 -1.00e+00 >   30.8815    0.0656    1.6624  103.9219  459.2036   -0.1890  223.7704 315.96 359.0  -1.0  0     0.0000
EMIJ   ?    ?    ? P      ? 20150917 1512   15.0000 GAU  0.00e+00 -1.00e+00  5.06e+01 -1.00e+00 >   31.5533   -1.6061    0.3889  466.4998  396.0556   -0.4700  228.9292  64.73 359.0  -1.0  0     0.0000
EMIJ   ?    ?    ? S      ? 20150917 1512   38.0000 GAU  0.00e+00 -1.00e+00  2.00e+02 -1.00e+00 >   55.2239   -2.2768    0.1229  466.4998  396.0556   -0.4700  228.9292  64.73 359.0  -1.0  0     0.0000
PCVE   ?    ?    ? P      ? 20150917 1512   17.0000 GAU  0.00e+00 -1.00e+00  1.47e+02 -1.00e+00 >   32.0608   -0.1136    1.7011  172.5550  514.7591   -0.2250  233.2209 338.12 359.0  -1.0  0     0.0000
PCVE   ?    ?    ? S      ? 20150917 1512   41.0000 GAU  0.00e+00 -1.00e+00  2.54e+01 -1.00e+00 >   56.1130   -0.1658    1.6527  172.5550  514.7591   -0.2250  233.2209 338.12 359.0  -1.0  0     0.0000
EMIN   ?    ?    ? P      ? 20150917 1512   17.0000 GAU  0.00e+00 -1.00e+00  1.51e+01 -1.00e+00 >   32.1214   -0.1743    1.6431  292.2751  529.7222   -0.2400  233.6960   8.07 359.0  -1.0  0     0.0000
EMIN   ?    ?    ? S      ? 20150917 1512   40.0000 GAU  0.00e+00 -1.00e+00 -1.00e+00 -1.00e+00 >   56.2193   -1.2721    0.5707  292.2751  529.7222   -0.2400  233.6960   8.07 359.0  -1.0  0     0.0000
EMAL   ?    ?    ? P      ? 20150917 1512   20.0000 GAU  0.00e+00 -1.00e+00 -1.00e+00 -1.00e+00 >   35.9935   -1.0464    0.7229  495.8807  418.0000   -0.0800  264.9667  63.15 359.0  -1.0  0     0.0000
AVE    ?    ?    ? P      ? 20150917 1512   21.0000 GAU  0.00e+00 -1.00e+00 -1.00e+00 -1.00e+00 >   36.1275   -0.1804    1.6358  240.2256   33.1222   -0.2300  265.9151 184.15 359.0  -1.0  0     0.0000
OBS01  ?    ?    ? P      ? 20150917 1512   24.0000 GAU  0.00e+00 -1.00e+00 -1.00e+00 -1.00e+00 >   39.1029   -0.1558    1.6636  -33.5914  323.1198    4.8499  294.1098 274.83 359.0  -1.0  0     0.0000
PNCL   ?    ?    ? P      ? 20150917 1512   25.0000 GAU  0.00e+00 -1.00e+00  2.25e+02 -1.00e+00 >   40.3207   -0.3735    1.3430  128.5993  567.9813   -0.1200  299.7238 334.11 359.0  -1.0  0     0.0000
ECAB   ?    ?    ? S      ? 20150917 1512   52.0000 GAU  0.00e+00 -1.00e+00  8.73e+02 -1.00e+00 >   70.9075   -3.9603    0.0000  400.7203  563.9222   -0.5200  300.8071  28.01 359.0  -1.0  0     0.0000
OBS02  ?    ?    ? P      ? 20150917 1512   25.0000 GAU  0.00e+00 -1.00e+00  8.57e+02 -1.00e+00 >   41.0452   -1.0981    0.6883  -49.9955  288.2889    4.7174  309.6313 268.14 359.0  -1.0  0     0.0000
OBS02  ?    ?    ? S      ? 20150917 1512   57.0000 GAU  0.00e+00 -1.00e+00 -1.00e+00 -1.00e+00 >   71.8763    0.0708    1.6557  -49.9955  288.2889    4.7174  309.6313 268.14 359.0  -1.0  0     0.0000
OBS06  ?    ?    ? P      ? 20150917 1512   27.0000 GAU  0.00e+00 -1.00e+00  2.03e+03 -1.00e+00 >   41.7051    0.2420    1.2840  -49.8054  358.2500    4.8430  315.0272 280.96 359.0  -1.0  0     0.0000
EVO    ?    ?    ? P      ? 20150917 1512   29.0000 GAU  0.00e+00 -1.00e+00 -1.00e+00 -1.00e+00 >   43.8268    0.1203    1.5771  172.3869  614.3778   -0.2320  327.8169 344.59 359.0  -1.0  0     0.0000
ELGU   ?    ?    ? P      ? 20150917 1512   28.0000 GAU  0.00e+00 -1.00e+00 -1.00e+00 -1.00e+00 >   44.6631   -1.7160    0.3183  566.5400  429.7556   -0.8470  334.0067  66.83 359.0  -1.0  0     0.0000
EBAD   ?    ?    ? P      ? 20150917 1512   30.0000 GAU  0.00e+00 -1.00e+00  4.60e+01 -1.00e+00 >   45.4867   -0.5395    1.1040  258.7887  639.5111   -0.2210  341.1720 359.89 359.0  -1.0  0     0.0000
OBS03  ?    ?    ? P      ? 20150917 1512   30.0000 GAU  0.00e+00 -1.00e+00  1.96e+03 -1.00e+00 >   45.9279   -0.9807    0.7645  -89.3644  288.4278    4.8420  348.9779 268.37 359.0  -1.0  0     0.0000
OBS03  ?    ?    ? S      ? 20150917 1513    0.0000 GAU  0.00e+00 -1.00e+00 -1.00e+00 -1.00e+00 >   80.4486   -5.5014    0.0000  -89.3644  288.4278    4.8420  348.9779 268.37 359.0  -1.0  0     0.0000
EADA   ?    ?    ? P      ? 20150917 1512   32.0000 GAU  0.00e+00 -1.00e+00  1.88e+02 -1.00e+00 >   46.5278    0.4193    0.7531  473.7263  574.1444   -0.5650  349.2460  37.84 359.0  -1.0  0     0.0000
EADA   ?    ?    ? S      ? 20150917 1513    5.0000 GAU  0.00e+00 -1.00e+00  1.33e+02 -1.00e+00 >   81.4915   -1.5444    0.4234  473.7263  574.1444   -0.5650  349.2460  37.84 359.0  -1.0  0     0.0000
OBS05  ?    ?    ? P      ? 20150917 1512   29.0000 GAU  0.00e+00 -1.00e+00  3.21e+02 -1.00e+00 >   46.4653   -2.5181    0.0951  -88.6282  358.0444    4.6836  353.1839 279.73 359.0  -1.0  0     0.0000
OBS05  ?    ?    ? S      ? 20150917 1513    6.0000 GAU  0.00e+00 -1.00e+00  8.29e+02 -1.00e+00 >   81.3921   -0.4450    1.2324  -88.6282  358.0444    4.6836  353.1839 279.73 359.0  -1.0  0     0.0000
PESTR  ?    ?    ? P      ? 20150917 1512   32.0000 GAU  0.00e+00 -1.00e+00  5.58e+01 -1.00e+00 >   47.5037   -0.5566    1.0835  208.4779  651.9076   -0.4100  357.2262 351.79 359.0  -1.0  0     0.0000
PMAFR  ?    ?    ? P      ? 20150917 1512   39.0000 GAU  0.00e+00 -1.00e+00  7.87e+01 -1.00e+00 >   54.5023   -0.5552    1.0851   61.9802  661.7033   -0.3290  413.5653 331.48 359.0  -1.0  0     0.0000
ETOB   ?    ?    ? P      ? 20150917 1513    0.0000 GAU  0.00e+00 -1.00e+00 -1.00e+00 -1.00e+00 >   74.8752    0.0719    1.6543  733.4946  627.1889   -0.8550  576.9216  55.25 359.0  -1.0  0     0.0000
UCM    ?    ?    ? P      ? 20150917 1513    5.0000 GAU  0.00e+00 -1.00e+00 -1.00e+00 -1.00e+00 >   77.9210    2.0261    0.0001  572.4377  811.9444   -0.8190  601.4456  31.36 359.0  -1.0  0     0.0000
EBER   ?    ?    ? P      ? 20150917 1512   36.0000 GAU  0.00e+00 -1.00e+00 -1.00e+00 -1.00e+00 >    0.0000    0.0000    0.0000 -100000000000000000000.0000 -100000000000000000000.0000 -100000000000000000000.0000    0.0000   0.00 359.0  -1.0  0     0.0000
PBDV   ?    ?    ? Pg     ? 20150917 1512   11.0000 GAU  0.00e+00 -1.00e+00  2.21e+00 -1.00e+00 >    0.0000    0.0000    0.0000 -100000000000000000000.0000 -100000000000000000000.0000 -100000000000000000000.0000    0.0000   0.00 359.0  -1.0  0     0.0000
EGOR   ?    ?    ? P      ? 20150917 1512   27.0000 GAU  0.00e+00 -1.00e+00 -1.00e+00 -1.00e+00 >    0.0000    0.0000    0.0000 -100000000000000000000.0000 -100000000000000000000.0000 -100000000000000000000.0000    0.0000   0.00 359.0  -1.0  0     0.0000
EQTA   ?    ?    ? P      ? 20150917 1512   33.0000 GAU  0.00e+00 -1.00e+00 -1.00e+00 -1.00e+00 >    0.0000    0.0000    0.0000 -100000000000000000000.0000 -100000000000000000000.0000 -100000000000000000000.0000    0.0000   0.00 359.0  -1.0  0     0.0000
IFR    ?    ?    ? P      ? 20150917 1512   22.0000 GAU  0.00e+00 -1.00e+00  2.76e+02 -1.00e+00 >    0.0000    0.0000    0.0000 -100000000000000000000.0000 -100000000000000000000.0000 -100000000000000000000.0000    0.0000   0.00 359.0  -1.0  0     0.0000
EQTA   ?    ?    ? S      ? 20150917 1513   10.0000 GAU  0.00e+00 -1.00e+00 -1.00e+00 -1.00e+00 >    0.0000    0.0000    0.0000 -100000000000000000000.0000 -100000000000000000000.0000 -100000000000000000000.0000    0.0000   0.00 359.0  -1.0  0     0.0000
EGOR   ?    ?    ? S      ? 20150917 1512   55.0000 GAU  0.00e+00 -1.00e+00  4.83e+02 -1.00e+00 >    0.0000    0.0000    0.0000 -100000000000000000000.0000 -100000000000000000000.0000 -100000000000000000000.0000    0.0000   0.00 359.0  -1.0  0     0.0000
ESPR   ?    ?    ? Pg     ? 20150917 1512    9.0000 GAU  0.00e+00 -1.00e+00  1.69e+03 -1.00e+00 >    0.0000    0.0000    0.0000 -100000000000000000000.0000 -100000000000000000000.0000 -100000000000000000000.0000    0.0000   0.00 359.0  -1.0  0     0.0000
END_PHASE
END_NLLOC

