NLLOC "/Users/robertocabieces/Documents/desarrollo/ISP2021/isp/earthquakeAnalisysis/location_output/loc/location.20150917.151207.grid0" "LOCATED" "Location completed."
SIGNATURE "Integrated Seismic Program   obs:/Users/robertocabieces/Documents/desarrollo/ISP2021/isp/earthquakeAnalisysis/location_output/obs/output.txt   NLLoc:v7.00.00(27Oct2017)  run:02Nov2022 21h11m31"
COMMENT ""
GRID  1000 1000 150  0 0 -1  1 1 1 PROB_DENSITY
SEARCH OCTREE nInitial 100 nEvaluated 25012 smallestNodeSide 0.195117/0.195117/0.292969 oct_tree_integral 1.204373e+02 scatter_volume 1.204373e+02
HYPOCENTER  x 614.912 y 198.142 z 46.0215  OT 44.4553  ix -1 iy -1 iz -1 MAXIMUM_LIKELIHOOD
GEOGRAPHIC  OT 2015 09 17  15 11 44.455309  Lat 35.686417 Long -7.149057 Depth 46.021484
QUALITY  Pmax 3.67674e+99 MFmin 47.1266 MFmax 47.1561 RMS 0.378057 Nphs 36 Gap 99.8807 Dist 159.611 Mamp -9.90 0 Mdur -9.90 0
VPVSRATIO  VpVsRatio 2  Npair 11  Diff 13
STATISTICS  ExpectX 615.317 Y 197.811 Z 43.7505  CovXX 1.29014 XY -0.0985258 XZ 2.22966 YY 2.67228 YZ 5.20222 ZZ 68.1281 EllAz1  76.3442 Dip1  -2.90157 Len1  2.01474 Az2  346.145 Dip2  -3.92702 Len2  2.86715 Len3  1.556278e+01
STAT_GEOG  ExpectLat 35.683382 Long -7.144897 Depth 43.750479
TRANSFORM  SIMPLE LatOrig 34.000000  LongOrig -14.000000  RotCW -1.000000
QML_OriginQuality  assocPhCt 44  usedPhCt 36  assocStaCt -1  usedStaCt 25  depthPhCt -1  stdErr 0.378057  azGap 99.8807  secAzGap 186.558  gtLevel -  minDist 159.611 maxDist 419.892 medDist 292.923
QML_OriginUncertainty  horUnc -1  minHorUnc 1.71792  maxHorUnc 2.4824  azMaxHorUnc 175.943
QML_ConfidenceEllipsoid  semiMajorAxisLength 15.5628  semiMinorAxisLength 2.01474  semiIntermediateAxisLength 2.86715  majorAxisPlunge 85.1146  majorAxisAzimuth 22.714  majorAxisRotation 36.8705
FOCALMECH  Hyp  35.686417 -7.149057 46.021484 Mech  0 0 0 mf  0 nObs 0
PHASE ID Ins Cmp On Pha  FM Date     HrMn   Sec     Err  ErrMag    Coda      Amp       Per  >   TTpred    Res       Weight    StaLoc(X  Y         Z)        SDist    SAzim  RAz  RDip RQual    Tcorr 
ECEU   ?    HHZ  ? P      U 20150917 1512    7.0000 GAU  0.00e+00 -1.00e+00  2.33e+02 -1.00e+00 >   23.0315   -0.4868    0.9987  772.3511  224.3802   -0.2780  159.6108  81.54  81.5  96.5  9     0.0000
CEU    ?    HHZ  ? P      U 20150917 1512    8.0000 GAU  0.00e+00 -1.00e+00 -1.00e+00 -1.00e+00 >   23.0775    0.4671    1.1284  772.6735  224.4859   -0.3200  159.9462  81.52  81.5  96.5  9     0.0000
ESPR   ?    HHZ  ? P      U 20150917 1512    9.0000 GAU  0.00e+00 -1.00e+00  6.58e+01 -1.00e+00 >   24.1255    0.4192    1.2109  718.2327  331.3187   -0.1350  168.5567  38.80  38.8  95.9  9     0.0000
PBDV   ?    HHZ  ? P      D 20150917 1512   11.0000 GAU  0.00e+00 -1.00e+00 -1.00e+00 -1.00e+00 >   26.9713   -0.4266    1.0817  530.4352  369.6470   -0.4710  191.1817 334.78 334.8  94.6  9     0.0000
PVAQ   ?    HHZ  ? P      D 20150917 1512   13.0000 GAU  0.00e+00 -1.00e+00 -1.00e+00 -1.00e+00 >   28.1846    0.3601    1.2950  547.8488  387.8060   -0.2000  201.1718 341.53 341.5  94.1  9     0.0000
EGRO   ?    HHZ  ? P      D 20150917 1512   14.0000 GAU  0.00e+00 -1.00e+00 -1.00e+00 -1.00e+00 >   29.2732    0.2715    1.3827  567.2631  402.6503   -0.1300  209.9863 347.88 347.9  93.6  9     0.0000
EGRO   ?    HHZ  ? S      D 20150917 1512   36.0000 GAU  0.00e+00 -1.00e+00 -1.00e+00 -1.00e+00 >   51.2337    0.3110    1.3491  567.2631  402.6503   -0.1300  209.9863 347.88 347.9  99.3  9     0.0000
PFVI   ?    HHZ  ? P      D 20150917 1512   16.0000 GAU  0.00e+00 -1.00e+00  1.96e+02 -1.00e+00 >   31.3701    0.1746    1.4314  452.1051  356.0370   -0.1890  226.7973 315.12 315.1  92.6  9     0.0000
EMIJ   ?    HHZ  ? P      U 20150917 1512   15.0000 GAU  0.00e+00 -1.00e+00 -1.00e+00 -1.00e+00 >   31.4512   -0.9065    0.4187  818.3733  299.2726   -0.4700  227.2093  64.57  64.6  92.6  9     0.0000
EMIN   ?    HHZ  ? P      D 20150917 1512   17.0000 GAU  0.00e+00 -1.00e+00 -1.00e+00 -1.00e+00 >   32.0990    0.4457    1.1668  636.2058  429.7799   -0.2400  232.6151   6.25   6.3  92.2  9     0.0000
PCVE   ?    HHZ  ? P      D 20150917 1512   17.0000 GAU  0.00e+00 -1.00e+00 -1.00e+00 -1.00e+00 >   32.4827    0.0620    1.4419  517.4038  412.7408   -0.2250  235.7131 336.56 336.6  92.0  9     0.0000
PCVE   ?    HHZ  ? S      ? 20150917 1512   42.0000 GAU  0.00e+00 -1.00e+00 -1.00e+00 -1.00e+00 >   56.8589    0.6858    0.6622  517.4038  412.7408   -0.2250  235.7131 336.56 336.6  98.8  9     0.0000
EMAL   ?    HHZ  ? P      U 20150917 1512   20.0000 GAU  0.00e+00 -1.00e+00 -1.00e+00 -1.00e+00 >   35.7922   -0.2475    1.2900  846.4521  321.7105   -0.0800  262.4504  62.91  62.9  90.0  9     0.0000
EMAL   ?    HHZ  ? S      ? 20150917 1512   47.0000 GAU  0.00e+00 -1.00e+00 -1.00e+00 -1.00e+00 >   62.6650   -0.1203    1.3847  846.4521  321.7105   -0.0800  262.4504  62.91  62.9  98.5  9     0.0000
AVE    ?    HHZ  ? P      D 20150917 1512   21.0000 GAU  0.00e+00 -1.00e+00 -1.00e+00 -1.00e+00 >   36.1812    0.3634    1.2907  612.9715  -67.3013   -0.2300  265.4499 181.42 181.4  89.7  9     0.0000
OBS01  ?    SHZ  ? P      U 20150917 1512   24.0000 GAU  0.00e+00 -1.00e+00  4.29e+05 -1.00e+00 >   39.0583    0.4864    1.0920  322.6406  217.6727    4.8499  292.9231 274.82 274.8  87.7  9     0.0000
OBS01  ?    SHZ  ? S      ? 20150917 1512   56.0000 GAU  0.00e+00 -1.00e+00  4.29e+05 -1.00e+00 >   68.4081    3.1366    0.0008  322.6406  217.6727    4.8499  292.9231 274.82 274.8  98.1  9     0.0000
ECAB   ?    HHZ  ? P      ? 20150917 1512   25.0000 GAU  0.00e+00 -1.00e+00 -1.00e+00 -1.00e+00 >   40.0831    0.4616    1.1385  742.5704  465.8417   -0.5200  296.5807  26.50  26.5  87.7  9     0.0000
ECAB   ?    HHZ  ? S      ? 20150917 1512   54.0000 GAU  0.00e+00 -1.00e+00 -1.00e+00 -1.00e+00 >   70.1967   -0.6520    0.7638  742.5704  465.8417   -0.5200  296.5807  26.50  26.5  98.1  9     0.0000
PNCL   ?    HHZ  ? P      D 20150917 1512   25.0000 GAU  0.00e+00 -1.00e+00 -1.00e+00 -1.00e+00 >   40.9236   -0.3789    1.1440  470.2453  465.1480   -0.1200  303.6789 332.55 332.6  87.6  9     0.0000
OBS02  ?    SHZ  ? P      U 20150917 1512   25.0000 GAU  0.00e+00 -1.00e+00 -1.00e+00 -1.00e+00 >   40.8277   -0.2830    1.2550  308.2674  182.5856    4.7174  307.0388 268.10 268.1  87.6  9     0.0000
OBS02  ?    SHZ  ? S      ? 20150917 1512   57.0000 GAU  0.00e+00 -1.00e+00 -1.00e+00 -1.00e+00 >   71.5153    1.0294    0.1446  308.2674  182.5856    4.7174  307.0388 268.10 268.1  98.0  9     0.0000
OBS06  ?    SHZ  ? S      ? 20150917 1513    0.0000 GAU  0.00e+00 -1.00e+00 -1.00e+00 -1.00e+00 >   73.2880    2.2567    0.0091  304.3723  252.4894    4.8430  315.2594 280.93 280.9  97.9  9     0.0000
EVO    ?    HHZ  ? P      D 20150917 1512   29.0000 GAU  0.00e+00 -1.00e+00  1.31e+02 -1.00e+00 >   44.3084    0.2363    1.4055  511.2083  512.2665   -0.2320  330.8005 342.73 342.7  87.5  9     0.0000
EVO    ?    HHZ  ? S      ? 20150917 1513    2.0000 GAU  0.00e+00 -1.00e+00 -1.00e+00 -1.00e+00 >   77.6185   -0.0739    1.4075  511.2083  512.2665   -0.2320  330.8005 342.73 342.7  97.9  9     0.0000
ELGU   ?    HHZ  ? P      ? 20150917 1512   28.0000 GAU  0.00e+00 -1.00e+00 -1.00e+00 -1.00e+00 >   44.3949   -0.8502    0.4929  916.4038  334.6889   -0.8470  330.9722  66.63  66.6  87.5  9     0.0000
EBAD   ?    HHZ  ? P      D 20150917 1512   30.0000 GAU  0.00e+00 -1.00e+00 -1.00e+00 -1.00e+00 >   45.6085   -0.0638    1.4117  596.0628  538.8848   -0.2210  341.2642 357.83 357.8  87.5  9     0.0000
EBAD   ?    HHZ  ? S      ? 20150917 1513    4.0000 GAU  0.00e+00 -1.00e+00 -1.00e+00 -1.00e+00 >   79.9026   -0.3580    1.1700  596.0628  538.8848   -0.2210  341.2642 357.83 357.8  97.8  9     0.0000
EADA   ?    HHZ  ? P      U 20150917 1512   32.0000 GAU  0.00e+00 -1.00e+00 -1.00e+00 -1.00e+00 >   45.9168    1.6279    0.0194  814.9464  477.3288   -0.5650  343.4522  36.62  36.6  87.5  9     0.0000
EADA   ?    HHZ  ? S      ? 20150917 1513    5.0000 GAU  0.00e+00 -1.00e+00 -1.00e+00 -1.00e+00 >   80.4436    0.1011    1.4428  814.9464  477.3288   -0.5650  343.4522  36.62  36.6  97.8  9     0.0000
OBS03  ?    SHZ  ? P      U 20150917 1512   30.0000 GAU  0.00e+00 -1.00e+00 -1.00e+00 -1.00e+00 >   45.7082   -0.1635    1.3579  268.8964  182.0373    4.8420  346.3900 268.34 268.3  87.5  9     0.0000
OBS03  ?    SHZ  ? S      ? 20150917 1513    4.0000 GAU  0.00e+00 -1.00e+00 -1.00e+00 -1.00e+00 >   80.0896   -0.5449    0.9162  268.8964  182.0373    4.8420  346.3900 268.34 268.3  97.7  9     0.0000
OBS05  ?    SHZ  ? P      U 20150917 1512   31.0000 GAU  0.00e+00 -1.00e+00 -1.00e+00 -1.00e+00 >   46.5982   -0.0535    1.4157  265.5675  251.6064    4.6836  353.4119 279.70 279.7  87.5  9     0.0000
OBS05  ?    SHZ  ? S      ? 20150917 1513    6.0000 GAU  0.00e+00 -1.00e+00 -1.00e+00 -1.00e+00 >   81.6531   -0.1084    1.3911  265.5675  251.6064    4.6836  353.4119 279.70 279.7  97.7  9     0.0000
PESTR  ?    HHZ  ? P      ? 20150917 1512   30.0000 GAU  0.00e+00 -1.00e+00  5.65e+01 -1.00e+00 >   47.8492   -2.3045    0.0000  545.0010  550.3918   -0.4100  359.1209 349.77 349.8  87.5  9     0.0000
PMAFR  ?    HHZ  ? P      D 20150917 1512   39.0000 GAU  0.00e+00 -1.00e+00  4.28e+01 -1.00e+00 >   55.3980   -0.8533    0.4887  397.9251  557.6219   -0.3290  419.8921 329.88 329.9  87.4  9     0.0000
ECHE   ?    HHZ  ? P      U 20150917 1513   12.0000 GAU  0.00e+00 -1.00e+00 -1.00e+00 -1.00e+00 >    0.0000    0.0000    0.0000 -100000000000000000000.0000 -100000000000000000000.0000 -100000000000000000000.0000    0.0000   1.00   0.0  -1.0  0     0.0000
IFR    ?    HHZ  ? P      D 20150917 1512   22.0000 GAU  0.00e+00 -1.00e+00  1.27e+03 -1.00e+00 >    0.0000    0.0000    0.0000 -100000000000000000000.0000 -100000000000000000000.0000 -100000000000000000000.0000    0.0000   1.00   0.0  -1.0  0     0.0000
EGOR   ?    HHZ  ? P      U 20150917 1512   26.0000 GAU  0.00e+00 -1.00e+00 -1.00e+00 -1.00e+00 >    0.0000    0.0000    0.0000 -100000000000000000000.0000 -100000000000000000000.0000 -100000000000000000000.0000    0.0000   1.00   0.0  -1.0  0     0.0000
EALB   ?    HHZ  ? P      U 20150917 1512   31.0000 GAU  0.00e+00 -1.00e+00 -1.00e+00 -1.00e+00 >    0.0000    0.0000    0.0000 -100000000000000000000.0000 -100000000000000000000.0000 -100000000000000000000.0000    0.0000   1.00   0.0  -1.0  0     0.0000
EBER   ?    HHZ  ? P      D 20150917 1512   36.0000 GAU  0.00e+00 -1.00e+00 -1.00e+00 -1.00e+00 >    0.0000    0.0000    0.0000 -100000000000000000000.0000 -100000000000000000000.0000 -100000000000000000000.0000    0.0000   1.00   0.0  -1.0  0     0.0000
EGOR   ?    HHZ  ? S      + 20150917 1512   55.0000 GAU  0.00e+00 -1.00e+00 -1.00e+00 -1.00e+00 >    0.0000    0.0000    0.0000 -100000000000000000000.0000 -100000000000000000000.0000 -100000000000000000000.0000    0.0000   1.00   0.0  -1.0  0     0.0000
ETOB   ?    HHZ  ? P      U 20150917 1513    0.0000 GAU  0.00e+00 -1.00e+00 -1.00e+00 -1.00e+00 >    0.0000    0.0000    0.0000 -100000000000000000000.0000 -100000000000000000000.0000 -100000000000000000000.0000    0.0000   1.00   0.0  -1.0  0     0.0000
UCM    ?    HHZ  ? P      ? 20150917 1513    4.0000 GAU  0.00e+00 -1.00e+00  6.10e+02 -1.00e+00 >    0.0000    0.0000    0.0000 -100000000000000000000.0000 -100000000000000000000.0000 -100000000000000000000.0000    0.0000   1.00   0.0  -1.0  0     0.0000
END_PHASE
END_NLLOC

