NLLOC "/Users/robertocabieces/Documents/desarrollo/ISP2021/isp/earthquakeAnalisysis/location_output/loc/location.20221224.003542.grid0" "LOCATED" "Location completed."
SIGNATURE "Integrated Seismic Program   obs:/Users/robertocabieces/Documents/desarrollo/ISP2021/isp/earthquakeAnalisysis/location_output/obs/output.txt   NLLoc:v7.00.00(27Oct2017)  run:31Jan2023 11h26m26"
COMMENT ""
GRID  361 181 601  -180 -90 0  1 1 1 PROB_DENSITY
SEARCH OCTREE nInitial 17628 nEvaluated 50004 smallestNodeSide 0.501179/0.407208/0.097819 oct_tree_integral 3.245562e+02 scatter_volume 3.245562e+02
HYPOCENTER  x -3.5945 y 35.4547 z 29.2968  OT 35.4057  ix -1 iy -1 iz -1 MAXIMUM_LIKELIHOOD
GEOGRAPHIC  OT 2022 12 24  00 35 35.405712  Lat 35.454712 Long -3.594501 Depth 29.296794
QUALITY  Pmax 2.91493e+26 MFmin 12.0159 MFmax 12.2445 RMS 0.427206 Nphs 15 Gap 181.947 Dist 0.533313 Mamp -9.90 0 Mdur -9.90 0
VPVSRATIO  VpVsRatio 2  Npair 6  Diff 22.826
STATISTICS  ExpectX -3.6112 Y 35.4329 Z 27.9065  CovXX 6.47393 XY 7.76169 XZ 8.582 YY 25.7273 YZ -0.428821 ZZ 41.7619 EllAz1  108.332 Dip1  -11.7702 Len1  2.66921 Az2  196.554 Dip2  8.46938 Len2  9.95976 Len3  1.244060e+01
STAT_GEOG  ExpectLat 35.432896 Long -3.611195 Depth 27.906532
TRANSFORM  GLOBAL
QML_OriginQuality  assocPhCt 18  usedPhCt 15  assocStaCt -1  usedStaCt 7  depthPhCt -1  stdErr 0.427206  azGap 181.947  secAzGap 181.947  gtLevel -  minDist 59.3018 maxDist 189.772 medDist 163.513
QML_OriginUncertainty  horUnc -1  minHorUnc 2.93082  maxHorUnc 8.09155  azMaxHorUnc 19.439
QML_ConfidenceEllipsoid  semiMajorAxisLength 12.4406  semiMinorAxisLength 2.66921  semiIntermediateAxisLength 9.95976  majorAxisPlunge 75.4278  majorAxisAzimuth 71.6091  majorAxisRotation 57.7645
FOCALMECH  Hyp  35.454712 -3.594501 29.296794 Mech  0 0 0 mf  0 nObs 0
PHASE ID Ins Cmp On Pha  FM Date     HrMn   Sec     Err  ErrMag    Coda      Amp       Per  >   TTpred    Res       Weight    StaLoc(X  Y         Z)        SDist    SAzim  RAz  RDip RQual    Tcorr 
WMELI  ?    HHZ  ? P      D 20221224 0035   46.6010 GAU  0.00e+00 -1.00e+00  1.61e+01 -1.00e+00 >   10.9276    0.2677    1.4376   -2.9518   35.3547   -0.0050    0.5333 100.62 100.6 109.4  9     0.0000
WMELI  ?    HHZ  ? S      - 20221224 0035   46.6590 GAU  0.00e+00 -1.00e+00 -1.00e+00 -1.00e+00 >   18.3731   -7.1198    0.0000   -2.9518   35.3547   -0.0050    0.5333 100.62 100.6 109.8  9     0.0000
WMELI  ?    HHE  ? S      r 20221224 0035   53.4320 GAU  0.00e+00 -1.00e+00 -1.00e+00 -1.00e+00 >   18.3731   -0.3468    1.3390   -2.9518   35.3547   -0.0050    0.5333 100.62 100.6 109.8  9     0.0000
CHAS   ?    HHZ  ? P      ? 20221224 0035   53.2820 GAU  0.00e+00 -1.00e+00 -1.00e+00 -1.00e+00 >   17.8613    0.0150    1.4994   -2.4304   35.1837   -0.1100    0.9877 105.59 105.6  53.5  9     0.0000
CHAS   ?    HHE  ? S      ? 20221224 0036    6.1230 GAU  0.00e+00 -1.00e+00 -1.00e+00 -1.00e+00 >   30.8199   -0.1026    1.4786   -2.4304   35.1837   -0.1100    0.9877 105.59 105.6  60.1  9     0.0000
EMIJ   ?    HHZ  ? P      ? 20221224 0035   59.6840 GAU  0.00e+00 -1.00e+00  1.79e+01 -1.00e+00 >   24.3953   -0.1170    1.4739   -4.7727   36.5645   -0.4700    1.4628 319.69 319.7  53.5  9     0.0000
EMIJ   ?    HHE  ? S      ? 20221224 0036   16.9200 GAU  0.00e+00 -1.00e+00  5.01e+00 -1.00e+00 >   42.5579   -1.0436    0.5767   -4.7727   36.5645   -0.4700    1.4628 319.69 319.7  58.7  9     0.0000
EMIJ   ?    HHE  ? P      ? 20221224 0036   16.9590 GAU  0.00e+00 -1.00e+00 -1.00e+00 -1.00e+00 >   24.3953   17.1580    0.0000   -4.7727   36.5645   -0.4700    1.4628 319.69 319.7  53.5  9     0.0000
EMAL   ?    HHZ  ? P      ? 20221224 0036    0.2470 GAU  0.00e+00 -1.00e+00 -1.00e+00 -1.00e+00 >   24.5009    0.3404    1.3952   -4.4280   36.7620   -0.1310    1.4705 332.99 333.0  53.5  9     0.0000
EMAL   ?    HHE  ? S      ? 20221224 0036   17.8350 GAU  0.00e+00 -1.00e+00 -1.00e+00 -1.00e+00 >   42.7473   -0.3181    1.3615   -4.4280   36.7620   -0.1310    1.4705 332.99 333.0  58.7  9     0.0000
ECEU   ?    HHZ  ? P      ? 20221224 0036    0.5620 GAU  0.00e+00 -1.00e+00 -1.00e+00 -1.00e+00 >   25.0999    0.0564    1.4991   -5.3768   35.8978   -0.2780    1.5141 287.53 287.5  53.5  9     0.0000
ECEU   ?    HHE  ? S      ? 20221224 0036   19.2940 GAU  0.00e+00 -1.00e+00 -1.00e+00 -1.00e+00 >   43.8224    0.0659    1.4985   -5.3768   35.8978   -0.2780    1.5141 287.53 287.5  58.7  9     0.0000
EBER   ?    HHZ  ? P      ? 20221224 0036    1.8870 GAU  0.00e+00 -1.00e+00 -1.00e+00 -1.00e+00 >   25.6119    0.8694    0.8929   -2.8896   36.8979   -1.6900    1.5513  21.31  21.3  53.5  9     0.0000
EGOR   ?    HHZ  ? P      ? 20221224 0036    4.3590 GAU  0.00e+00 -1.00e+00  9.46e+00 -1.00e+00 >   27.7487    1.2046    0.5445   -4.1096   37.1101   -1.3780    1.7067 346.07 346.1  53.5  9     0.0000
EGOR   ?    HHE  ? S      ? 20221224 0036   27.2430 GAU  0.00e+00 -1.00e+00  4.86e+01 -1.00e+00 >   48.5762    3.2611    0.0032   -4.1096   37.1101   -1.3780    1.7067 346.07 346.1  58.7  9     0.0000
ALHU   ?    HHZ  ? Phase  ? 20221224 0035   42.9830 GAU  0.00e+00 -1.00e+00  3.30e-01 -1.00e+00 >    0.0000    0.0000    0.0000 -100000000000000000000.0000 -100000000000000000000.0000 -100000000000000000000.0000    0.0000   0.00  -1.0  -1.0  0     0.0000
ALHU   ?    HHE  ? S      ? 20221224 0035   48.2180 GAU  0.00e+00 -1.00e+00 -1.00e+00 -1.00e+00 >    0.0000    0.0000    0.0000 -100000000000000000000.0000 -100000000000000000000.0000 -100000000000000000000.0000    0.0000   0.00  -1.0  -1.0  0     0.0000
ALHU   ?    HHZ  ? P      ? 20221224 0035   42.9470 GAU  0.00e+00 -1.00e+00  5.10e-01 -1.00e+00 >    0.0000    0.0000    0.0000 -100000000000000000000.0000 -100000000000000000000.0000 -100000000000000000000.0000    0.0000   0.00  -1.0  -1.0  0     0.0000
END_PHASE
END_NLLOC

