ALHU ? HHZ ? P D 20221223 2152 32.925 GAU 0.00E+00 0.0 0.35 0.0
ALHU ? HHE ? S l 20221223 2152 38.113 GAU 0.00E+00 0.0 1.23 0.0
WMELI ? HHZ ? P ? 20221223 2152 36.672 GAU 0.00E+00 0.0 34.30 0.0
WMELI ? HHE ? S ? 20221223 2152 43.985 GAU 0.00E+00 0.0 -285.50 0.0
CHAS ? HHZ ? P D 20221223 2152 43.294 GAU 0.00E+00 0.0 180.95 0.0
CHAS ? HHE ? S ? 20221223 2152 55.811 GAU 0.00E+00 0.0 492.79 0.0
EMIJ ? HHZ ? P ? 20221223 2152 49.615 GAU 0.00E+00 0.0 2.39 0.0
EMIJ ? HHN ? S ? 20221223 2153 07.279 GAU 0.00E+00 0.0 37.15 0.0
EMAL ? HHZ ? P ? 20221223 2152 50.137 GAU 0.00E+00 0.0 -27.08 0.0
EMAL ? HHE ? S ? 20221223 2153 07.716 GAU 0.00E+00 0.0 130.28 0.0
ECEU ? HHZ ? P ? 20221223 2152 50.548 GAU 0.00E+00 0.0 -6.80 0.0
ECEU ? HHN ? S ? 20221223 2153 08.120 GAU 0.00E+00 0.0 -111.50 0.0
EBER ? HHZ ? P ? 20221223 2152 53.395 GAU 0.00E+00 0.0 4.21 0.0
EBER ? HHN ? S ? 20221223 2153 12.213 GAU 0.00E+00 0.0 -41.72 0.0
EGOR ? HHZ ? P ? 20221223 2152 54.330 GAU 0.00E+00 0.0 2.59 0.0
EGOR ? HHE ? S ? 20221223 2153 19.633 GAU 0.00E+00 0.0 -14.91 0.0